[{"OBJECT_NAME":"STARLINK-33893","OBJECT_ID":"2025-119W","EPOCH":"2026-03-09T00:19:38.024256","MEAN_MOTION":15.27597675,"ECCENTRICITY":0.00012771,"INCLINATION":42.9969,"RA_OF_ASC_NODE":311.0709,"ARG_OF_PERICENTER":280.8883,"MEAN_ANOMALY":79.1825,"EPHEMERIS_TYPE":0,"CLASSIFICATION_TYPE":"U","NORAD_CAT_ID":64253,"ELEMENT_SET_NO":999,"REV_AT_EPOCH":4406,"BSTAR":0.0012598872,"MEAN_MOTION_DOT":0.00034589,"MEAN_MOTION_DDOT":0},{"OBJECT_NAME":"CZ-6A DEB","OBJECT_ID":"2022-151DE","EPOCH":"2026-03-09T09:45:43.657920","MEAN_MOTION":15.34292219,"ECCENTRICITY":0.00393756,"INCLINATION":99.0022,"RA_OF_ASC_NODE":218.5596,"ARG_OF_PERICENTER":192.6197,"MEAN_ANOMALY":167.4059,"EPHEMERIS_TYPE":0,"CLASSIFICATION_TYPE":"U","NORAD_CAT_ID":54359,"ELEMENT_SET_NO":999,"REV_AT_EPOCH":10560,"BSTAR":0.0065240017,"MEAN_MOTION_DOT":0.00228186,"MEAN_MOTION_DDOT":0}]
